[{"OBJECT_NAME":"KUIPER-00247","OBJECT_ID":"2025-301V","EPOCH":"2026-03-04T11:19:04.791072","MEAN_MOTION":15.36618717,"ECCENTRICITY":0.00140671,"INCLINATION":51.8622,"RA_OF_ASC_NODE":91.1831,"ARG_OF_PERICENTER":39.5463,"MEAN_ANOMALY":320.6547,"EPHEMERIS_TYPE":0,"CLASSIFICATION_TYPE":"U","NORAD_CAT_ID":67152,"ELEMENT_SET_NO":999,"REV_AT_EPOCH":1292,"BSTAR":0.00076171896,"MEAN_MOTION_DOT":0.00027451,"MEAN_MOTION_DDOT":0},{"OBJECT_NAME":"KUIPER-00248","OBJECT_ID":"2025-301W","EPOCH":"2026-03-04T18:20:59.521920","MEAN_MOTION":15.37222834,"ECCENTRICITY":0.0011577,"INCLINATION":51.8661,"RA_OF_ASC_NODE":89.4374,"ARG_OF_PERICENTER":26.4407,"MEAN_ANOMALY":333.7168,"EPHEMERIS_TYPE":0,"CLASSIFICATION_TYPE":"U","NORAD_CAT_ID":67153,"ELEMENT_SET_NO":999,"REV_AT_EPOCH":1314,"BSTAR":0.0010369,"MEAN_MOTION_DOT":0.00038273,"MEAN_MOTION_DDOT":0},{"OBJECT_NAME":"KUIPER-00249","OBJECT_ID":"2025-301X","EPOCH":"2026-03-04T19:16:06.073248","MEAN_MOTION":15.37894168,"ECCENTRICITY":0.0010528,"INCLINATION":51.8643,"RA_OF_ASC_NODE":88.9345,"ARG_OF_PERICENTER":28.4862,"MEAN_ANOMALY":331.6698,"EPHEMERIS_TYPE":0,"CLASSIFICATION_TYPE":"U","NORAD_CAT_ID":67154,"ELEMENT_SET_NO":999,"REV_AT_EPOCH":1298,"BSTAR":0.0011635,"MEAN_MOTION_DOT":0.00043962,"MEAN_MOTION_DDOT":0},{"OBJECT_NAME":"KUIPER-00250","OBJECT_ID":"2025-301Y","EPOCH":"2026-03-04T20:00:03.000384","MEAN_MOTION":14.98226545,"ECCENTRICITY":0.0009245,"INCLINATION":51.8907,"RA_OF_ASC_NODE":91.9763,"ARG_OF_PERICENTER":40.2793,"MEAN_ANOMALY":44.5134,"EPHEMERIS_TYPE":0,"CLASSIFICATION_TYPE":"U","NORAD_CAT_ID":67155,"ELEMENT_SET_NO":999,"REV_AT_EPOCH":578,"BSTAR":-0.0019924,"MEAN_MOTION_DOT":-0.00024124,"MEAN_MOTION_DDOT":0},{"OBJECT_NAME":"KUIPER-00251","OBJECT_ID":"2025-301Z","EPOCH":"2026-03-04T07:11:10.694976","MEAN_MOTION":15.37379811,"ECCENTRICITY":0.00111876,"INCLINATION":51.8649,"RA_OF_ASC_NODE":91.5656,"ARG_OF_PERICENTER":28.0542,"MEAN_ANOMALY":332.1045,"EPHEMERIS_TYPE":0,"CLASSIFICATION_TYPE":"U","NORAD_CAT_ID":67156,"ELEMENT_SET_NO":999,"REV_AT_EPOCH":1309,"BSTAR":0.00072800465,"MEAN_MOTION_DOT":0.00026846,"MEAN_MOTION_DDOT":0},{"OBJECT_NAME":"KUIPER-00252","OBJECT_ID":"2025-301AA","EPOCH":"2026-03-04T09:10:02.076672","MEAN_MOTION":15.37128851,"ECCENTRICITY":0.00128446,"INCLINATION":51.8648,"RA_OF_ASC_NODE":91.3597,"ARG_OF_PERICENTER":33.3013,"MEAN_ANOMALY":326.8779,"EPHEMERIS_TYPE":0,"CLASSIFICATION_TYPE":"U","NORAD_CAT_ID":67157,"ELEMENT_SET_NO":999,"REV_AT_EPOCH":1291,"BSTAR":0.0019070023,"MEAN_MOTION_DOT":0.0007084,"MEAN_MOTION_DDOT":0},{"OBJECT_NAME":"KUIPER-00261","OBJECT_ID":"2025-301AB","EPOCH":"2026-03-04T20:00:03.000384","MEAN_MOTION":14.96254068,"ECCENTRICITY":0.0011236,"INCLINATION":51.9249,"RA_OF_ASC_NODE":92.2461,"ARG_OF_PERICENTER":44.3588,"MEAN_ANOMALY":143.9127,"EPHEMERIS_TYPE":0,"CLASSIFICATION_TYPE":"U","NORAD_CAT_ID":67158,"ELEMENT_SET_NO":999,"REV_AT_EPOCH":520,"BSTAR":-0.10246,"MEAN_MOTION_DOT":-0.01081539,"MEAN_MOTION_DDOT":0},{"OBJECT_NAME":"KUIPER-00265","OBJECT_ID":"2025-301AC","EPOCH":"2026-03-04T12:55:58.152000","MEAN_MOTION":14.79927628,"ECCENTRICITY":6.47e-5,"INCLINATION":51.9016,"RA_OF_ASC_NODE":108.3884,"ARG_OF_PERICENTER":67.94,"MEAN_ANOMALY":292.1631,"EPHEMERIS_TYPE":0,"CLASSIFICATION_TYPE":"U","NORAD_CAT_ID":67159,"ELEMENT_SET_NO":999,"REV_AT_EPOCH":1272,"BSTAR":-0.00021358,"MEAN_MOTION_DOT":-1.849e-5,"MEAN_MOTION_DDOT":0},{"OBJECT_NAME":"KUIPER-00159","OBJECT_ID":"2026-030A","EPOCH":"2026-03-04T18:02:03.107904","MEAN_MOTION":15.35508981,"ECCENTRICITY":0.000454,"INCLINATION":51.8844,"RA_OF_ASC_NODE":242.977,"ARG_OF_PERICENTER":32.0288,"MEAN_ANOMALY":328.0973,"EPHEMERIS_TYPE":0,"CLASSIFICATION_TYPE":"U","NORAD_CAT_ID":67764,"ELEMENT_SET_NO":999,"REV_AT_EPOCH":433,"BSTAR":0.00086433,"MEAN_MOTION_DOT":0.00030028,"MEAN_MOTION_DDOT":0},{"OBJECT_NAME":"KUIPER-00160","OBJECT_ID":"2026-030B","EPOCH":"2026-03-04T18:03:40.882464","MEAN_MOTION":15.35355822,"ECCENTRICITY":0.0004832,"INCLINATION":51.8813,"RA_OF_ASC_NODE":242.9769,"ARG_OF_PERICENTER":42.9176,"MEAN_ANOMALY":317.2186,"EPHEMERIS_TYPE":0,"CLASSIFICATION_TYPE":"U","NORAD_CAT_ID":67765,"ELEMENT_SET_NO":999,"REV_AT_EPOCH":433,"BSTAR":0.0010612,"MEAN_MOTION_DOT":0.00036809,"MEAN_MOTION_DDOT":0},{"OBJECT_NAME":"KUIPER-00177","OBJECT_ID":"2026-030C","EPOCH":"2026-03-04T19:20:21.881184","MEAN_MOTION":15.3631057,"ECCENTRICITY":9.86e-5,"INCLINATION":51.8827,"RA_OF_ASC_NODE":242.5916,"ARG_OF_PERICENTER":16.812,"MEAN_ANOMALY":343.2899,"EPHEMERIS_TYPE":0,"CLASSIFICATION_TYPE":"U","NORAD_CAT_ID":67766,"ELEMENT_SET_NO":999,"REV_AT_EPOCH":434,"BSTAR":0.0012654,"MEAN_MOTION_DOT":0.0004538,"MEAN_MOTION_DDOT":0},{"OBJECT_NAME":"KUIPER-00178","OBJECT_ID":"2026-030D","EPOCH":"2026-03-04T18:06:07.134336","MEAN_MOTION":15.35301033,"ECCENTRICITY":0.0005981,"INCLINATION":51.8832,"RA_OF_ASC_NODE":242.9926,"ARG_OF_PERICENTER":32.5538,"MEAN_ANOMALY":327.5816,"EPHEMERIS_TYPE":0,"CLASSIFICATION_TYPE":"U","NORAD_CAT_ID":67767,"ELEMENT_SET_NO":999,"REV_AT_EPOCH":433,"BSTAR":0.00086861,"MEAN_MOTION_DOT":0.00029983,"MEAN_MOTION_DDOT":0},{"OBJECT_NAME":"KUIPER-00180","OBJECT_ID":"2026-030E","EPOCH":"2026-03-04T18:48:09.165024","MEAN_MOTION":15.32125736,"ECCENTRICITY":0.001464,"INCLINATION":51.8797,"RA_OF_ASC_NODE":243.1737,"ARG_OF_PERICENTER":54.3029,"MEAN_ANOMALY":305.9316,"EPHEMERIS_TYPE":0,"CLASSIFICATION_TYPE":"U","NORAD_CAT_ID":67768,"ELEMENT_SET_NO":999,"REV_AT_EPOCH":433,"BSTAR":0.00032953,"MEAN_MOTION_DOT":0.00010043,"MEAN_MOTION_DDOT":0},{"OBJECT_NAME":"KUIPER-00197","OBJECT_ID":"2026-030F","EPOCH":"2026-03-04T17:49:42.323808","MEAN_MOTION":15.36176669,"ECCENTRICITY":0.0001331,"INCLINATION":51.8835,"RA_OF_ASC_NODE":242.9195,"ARG_OF_PERICENTER":46.2995,"MEAN_ANOMALY":313.8102,"EPHEMERIS_TYPE":0,"CLASSIFICATION_TYPE":"U","NORAD_CAT_ID":67769,"ELEMENT_SET_NO":999,"REV_AT_EPOCH":433,"BSTAR":0.0011868,"MEAN_MOTION_DOT":0.00042334,"MEAN_MOTION_DDOT":0},{"OBJECT_NAME":"KUIPER-00198","OBJECT_ID":"2026-030G","EPOCH":"2026-03-04T19:30:11.626848","MEAN_MOTION":15.35800226,"ECCENTRICITY":0.0002974,"INCLINATION":51.8808,"RA_OF_ASC_NODE":242.6311,"ARG_OF_PERICENTER":36.2689,"MEAN_ANOMALY":323.8498,"EPHEMERIS_TYPE":0,"CLASSIFICATION_TYPE":"U","NORAD_CAT_ID":67770,"ELEMENT_SET_NO":999,"REV_AT_EPOCH":434,"BSTAR":0.00058919,"MEAN_MOTION_DOT":0.00020511,"MEAN_MOTION_DDOT":0},{"OBJECT_NAME":"KUIPER-00199","OBJECT_ID":"2026-030H","EPOCH":"2026-03-04T18:26:49.009920","MEAN_MOTION":15.3414621,"ECCENTRICITY":0.001038,"INCLINATION":51.8809,"RA_OF_ASC_NODE":243.0794,"ARG_OF_PERICENTER":47.3877,"MEAN_ANOMALY":312.7982,"EPHEMERIS_TYPE":0,"CLASSIFICATION_TYPE":"U","NORAD_CAT_ID":67771,"ELEMENT_SET_NO":999,"REV_AT_EPOCH":433,"BSTAR":0.001271,"MEAN_MOTION_DOT":0.00042569,"MEAN_MOTION_DDOT":0},{"OBJECT_NAME":"KUIPER-00200","OBJECT_ID":"2026-030J","EPOCH":"2026-03-04T17:38:07.844064","MEAN_MOTION":15.36812247,"ECCENTRICITY":0.0001334,"INCLINATION":51.8804,"RA_OF_ASC_NODE":242.8644,"ARG_OF_PERICENTER":214.5163,"MEAN_ANOMALY":145.5737,"EPHEMERIS_TYPE":0,"CLASSIFICATION_TYPE":"U","NORAD_CAT_ID":67772,"ELEMENT_SET_NO":999,"REV_AT_EPOCH":433,"BSTAR":0.00084848,"MEAN_MOTION_DOT":0.00030738,"MEAN_MOTION_DDOT":0}]
