KUIPER-00247            
1 67152U 25301V   26063.47158323  .00027451  00000+0  76172-3 0  9996
2 67152  51.8622  91.1831 0014067  39.5463 320.6547 15.36618717 12924
KUIPER-00248            
1 67153U 25301W   26063.76457780  .00038273  00000+0  10369-2 0  9997
2 67153  51.8661  89.4374 0011577  26.4407 333.7168 15.37222834 13147
KUIPER-00249            
1 67154U 25301X   26063.80284807  .00043962  00000+0  11635-2 0  9999
2 67154  51.8643  88.9345 0010528  28.4862 331.6698 15.37894168 12983
KUIPER-00250            
1 67155U 25301Y   26063.83336806 -.00024124  00000+0 -19924-2 0  9990
2 67155  51.8907  91.9763 0009245  40.2793  44.5134 14.98226545  5783
KUIPER-00251            
1 67156U 25301Z   26063.29942934  .00026846  00000+0  72800-3 0  9990
2 67156  51.8649  91.5656 0011187  28.0542 332.1045 15.37379811 13097
KUIPER-00252            
1 67157U 25301AA  26063.38196848  .00070840  00000+0  19070-2 0  9998
2 67157  51.8648  91.3597 0012844  33.3013 326.8779 15.37128851 12912
KUIPER-00261            
1 67158U 25301AB  26063.83336806 -.01081539  00000+0 -10246+0 0  9992
2 67158  51.9249  92.2461 0011236  44.3588 143.9127 14.96254068  5207
KUIPER-00265            
1 67159U 25301AC  26063.53886750 -.00001849  00000+0 -21358-3 0  9993
2 67159  51.9016 108.3884 0000647  67.9400 292.1631 14.79927628 12728
KUIPER-00159            
1 67764U 26030A   26063.75142486  .00030028  00000+0  86433-3 0  9994
2 67764  51.8844 242.9770 0004540  32.0288 328.0973 15.35508981  4336
KUIPER-00160            
1 67765U 26030B   26063.75255651  .00036809  00000+0  10612-2 0  9992
2 67765  51.8813 242.9769 0004832  42.9176 317.2186 15.35355822  4331
KUIPER-00177            
1 67766U 26030C   26063.80580881  .00045380  00000+0  12654-2 0  9997
2 67766  51.8827 242.5916 0000986  16.8120 343.2899 15.36310570  4345
KUIPER-00178            
1 67767U 26030D   26063.75424924  .00029983  00000+0  86861-3 0  9990
2 67767  51.8832 242.9926 0005981  32.5538 327.5816 15.35301033  4331
KUIPER-00180            
1 67768U 26030E   26063.78343941  .00010043  00000+0  32953-3 0  9993
2 67768  51.8797 243.1737 0014640  54.3029 305.9316 15.32125736  4330
KUIPER-00197            
1 67769U 26030F   26063.74285097  .00042334  00000+0  11868-2 0  9996
2 67769  51.8835 242.9195 0001331  46.2995 313.8102 15.36176669  4330
KUIPER-00198            
1 67770U 26030G   26063.81263457  .00020511  00000+0  58919-3 0  9994
2 67770  51.8808 242.6311 0002974  36.2689 323.8498 15.35800226  4344
KUIPER-00199            
1 67771U 26030H   26063.76862280  .00042569  00000+0  12710-2 0  9993
2 67771  51.8809 243.0794 0010380  47.3877 312.7982 15.34146210  4337
KUIPER-00200            
1 67772U 26030J   26063.73481301  .00030738  00000+0  84848-3 0  9999
2 67772  51.8804 242.8644 0001334 214.5163 145.5737 15.36812247  4331
